{
  "norad_id": 62666,
  "name": "FLOCK 4G-1",
  "history": [
    {
      "epoch": "2026-03-28T21:15:48.271104Z",
      "apogee_km": 484.3925750761655,
      "perigee_km": 479.6827907493589,
      "latitude_deg": 6.97108478872623e-05,
      "longitude_deg": 25.063668306606253,
      "height_km": 486.6907200189957,
      "semi_major_axis_km": 6860.174682912762,
      "eccentricity": 0.00034327,
      "inclination_deg": 97.4047,
      "raan_deg": 170.3148,
      "arg_perigee_deg": 228.8942,
      "mean_anomaly_deg": 131.2002,
      "mean_motion_rev_day": 15.27917835
    },
    {
      "epoch": "2026-03-29T05:07:20.097984Z",
      "apogee_km": 484.35268471704876,
      "perigee_km": 479.6301723068609,
      "latitude_deg": 9.663930974322267e-07,
      "longitude_deg": -92.81628586783431,
      "height_km": 486.6919510440274,
      "semi_major_axis_km": 6860.128428511955,
      "eccentricity": 0.0003442,
      "inclination_deg": 97.4046,
      "raan_deg": 170.6402,
      "arg_perigee_deg": 227.484,
      "mean_anomaly_deg": 132.6109,
      "mean_motion_rev_day": 15.27933288
    },
    {
      "epoch": "2026-03-30T04:41:54.255840Z",
      "apogee_km": 484.29888857408787,
      "perigee_km": 479.4653191135185,
      "latitude_deg": 4.5676075568312e-05,
      "longitude_deg": -86.45095369944774,
      "height_km": 486.73231056166856,
      "semi_major_axis_km": 6860.019103843802,
      "eccentricity": 0.0003523,
      "inclination_deg": 97.4044,
      "raan_deg": 171.6161,
      "arg_perigee_deg": 223.7622,
      "mean_anomaly_deg": 136.3339,
      "mean_motion_rev_day": 15.27969813
    },
    {
      "epoch": "2026-03-30T06:16:12.451008Z",
      "apogee_km": 484.29374003390785,
      "perigee_km": 479.45468812349645,
      "latitude_deg": -1.2616915089998586e-05,
      "longitude_deg": -110.02620757300218,
      "height_km": 486.7315381747925,
      "semi_major_axis_km": 6860.011214078701,
      "eccentricity": 0.0003527,
      "inclination_deg": 97.4045,
      "raan_deg": 171.6812,
      "arg_perigee_deg": 223.5861,
      "mean_anomaly_deg": 136.51,
      "mean_motion_rev_day": 15.27972449
    },
    {
      "epoch": "2026-03-30T18:50:37.748832Z",
      "apogee_km": 484.26383063296544,
      "perigee_km": 479.36829372967077,
      "latitude_deg": -4.0602054694902655e-05,
      "longitude_deg": 61.372505792137254,
      "height_km": 486.74095835848607,
      "semi_major_axis_km": 6859.953062181318,
      "eccentricity": 0.00035682,
      "inclination_deg": 97.4045,
      "raan_deg": 172.2017,
      "arg_perigee_deg": 221.9618,
      "mean_anomaly_deg": 138.1348,
      "mean_motion_rev_day": 15.27991878
    },
    {
      "epoch": "2026-03-31T04:16:26.327136Z",
      "apogee_km": 484.24269456090315,
      "perigee_km": 479.31247394919865,
      "latitude_deg": 5.734132821581074e-06,
      "longitude_deg": -80.07679223400969,
      "height_km": 486.7646649719818,
      "semi_major_axis_km": 6859.914584255051,
      "eccentricity": 0.00035935,
      "inclination_deg": 97.4045,
      "raan_deg": 172.5921,
      "arg_perigee_deg": 220.2169,
      "mean_anomaly_deg": 139.8805,
      "mean_motion_rev_day": 15.28004734
    },
    {
      "epoch": "2026-04-01T11:42:26.031456Z",
      "apogee_km": 484.17396728520544,
      "perigee_km": 479.12516437275553,
      "latitude_deg": -6.587015083950471e-05,
      "longitude_deg": 168.43493301942615,
      "height_km": 486.7992384307358,
      "semi_major_axis_km": 6859.78656582898,
      "eccentricity": 0.000368,
      "inclination_deg": 97.4045,
      "raan_deg": 173.8935,
      "arg_perigee_deg": 215.8929,
      "mean_anomaly_deg": 144.2063,
      "mean_motion_rev_day": 15.28047508
    },
    {
      "epoch": "2026-04-02T11:16:53.880384Z",
      "apogee_km": 484.1236937000813,
      "perigee_km": 478.96987607881783,
      "latitude_deg": 9.32184791748362e-05,
      "longitude_deg": 174.82680991139415,
      "height_km": 486.8374947800468,
      "semi_major_axis_km": 6859.683784889449,
      "eccentricity": 0.00037566,
      "inclination_deg": 97.4043,
      "raan_deg": 174.8696,
      "arg_perigee_deg": 211.9629,
      "mean_anomaly_deg": 148.1384,
      "mean_motion_rev_day": 15.28081851
    },
    {
      "epoch": "2026-04-03T18:42:47.725056Z",
      "apogee_km": 484.04334580654086,
      "perigee_km": 478.7395584073729,
      "latitude_deg": -1.1858066707103936e-05,
      "longitude_deg": 63.36302009282834,
      "height_km": 486.8470152992745,
      "semi_major_axis_km": 6859.528452106957,
      "eccentricity": 0.0003866,
      "inclination_deg": 97.4039,
      "raan_deg": 176.171,
      "arg_perigee_deg": 207.5497,
      "mean_anomaly_deg": 152.5538,
      "mean_motion_rev_day": 15.28133756
    },
    {
      "epoch": "2026-04-04T18:17:10.412448Z",
      "apogee_km": 483.96990157029995,
      "perigee_km": 478.5770330608966,
      "latitude_deg": -7.338560103162191e-06,
      "longitude_deg": 69.77628054286438,
      "height_km": 486.8415805430167,
      "semi_major_axis_km": 6859.410467315598,
      "eccentricity": 0.0003931,
      "inclination_deg": 97.4035,
      "raan_deg": 177.1469,
      "arg_perigee_deg": 203.9697,
      "mean_anomaly_deg": 156.136,
      "mean_motion_rev_day": 15.28173183
    },
    {
      "epoch": "2026-04-05T11:34:21.856224Z",
      "apogee_km": 483.9559475117667,
      "perigee_km": 478.4561262647885,
      "latitude_deg": -1.5418434087277432e-05,
      "longitude_deg": 170.48476626891872,
      "height_km": 486.8789017189904,
      "semi_major_axis_km": 6859.343036888277,
      "eccentricity": 0.0004009,
      "inclination_deg": 97.4034,
      "raan_deg": 177.863,
      "arg_perigee_deg": 200.9104,
      "mean_anomaly_deg": 159.1972,
      "mean_motion_rev_day": 15.28195717
    },
    {
      "epoch": "2026-04-05T17:51:31.294944Z",
      "apogee_km": 483.9519191200525,
      "perigee_km": 478.4191895477261,
      "latitude_deg": 2.89163138238922e-05,
      "longitude_deg": 76.19747706404051,
      "height_km": 486.88832831311805,
      "semi_major_axis_km": 6859.322554333889,
      "eccentricity": 0.0004033,
      "inclination_deg": 97.4032,
      "raan_deg": 178.1232,
      "arg_perigee_deg": 200.047,
      "mean_anomaly_deg": 160.0612,
      "mean_motion_rev_day": 15.28202562
    },
    {
      "epoch": "2026-04-06T04:51:32.549184Z",
      "apogee_km": 483.9480931980979,
      "perigee_km": 478.3516010595249,
      "latitude_deg": -5.072640717939024e-05,
      "longitude_deg": -88.80380786137877,
      "height_km": 486.91077062118165,
      "semi_major_axis_km": 6859.286847128811,
      "eccentricity": 0.00040795,
      "inclination_deg": 97.4032,
      "raan_deg": 178.5789,
      "arg_perigee_deg": 198.2821,
      "mean_anomaly_deg": 161.8272,
      "mean_motion_rev_day": 15.28214495
    },
    {
      "epoch": "2026-04-07T04:25:51.329568Z",
      "apogee_km": 483.9270566031337,
      "perigee_km": 478.20867469074074,
      "latitude_deg": 7.050758633939904e-05,
      "longitude_deg": -82.3738405009918,
      "height_km": 486.93289787207584,
      "semi_major_axis_km": 6859.204865646937,
      "eccentricity": 0.00041684,
      "inclination_deg": 97.4029,
      "raan_deg": 179.5552,
      "arg_perigee_deg": 195.0348,
      "mean_anomaly_deg": 165.0769,
      "mean_motion_rev_day": 15.28241893
    },
    {
      "epoch": "2026-04-07T18:34:26.016672Z",
      "apogee_km": 483.9300306831028,
      "perigee_km": 478.14226038290235,
      "latitude_deg": -8.9441110323903e-05,
      "longitude_deg": 65.48651775506163,
      "height_km": 486.96002916003744,
      "semi_major_axis_km": 6859.173145533002,
      "eccentricity": 0.0004219,
      "inclination_deg": 97.4028,
      "raan_deg": 180.1409,
      "arg_perigee_deg": 192.9483,
      "mean_anomaly_deg": 167.1648,
      "mean_motion_rev_day": 15.28252494
    },
    {
      "epoch": "2026-04-08T04:00:08.867520Z",
      "apogee_km": 483.9227438174703,
      "perigee_km": 478.0913739043881,
      "latitude_deg": 9.467611820136169e-05,
      "longitude_deg": -75.93877000996096,
      "height_km": 486.9687641035384,
      "semi_major_axis_km": 6859.144058860928,
      "eccentricity": 0.00042508,
      "inclination_deg": 97.4027,
      "raan_deg": 180.5314,
      "arg_perigee_deg": 191.3898,
      "mean_anomaly_deg": 168.7247,
      "mean_motion_rev_day": 15.28262215
    },
    {
      "epoch": "2026-04-09T11:25:50.335392Z",
      "apogee_km": 483.92357485525645,
      "perigee_km": 477.9284794070236,
      "latitude_deg": 6.950982627808701e-05,
      "longitude_deg": 172.6495367674492,
      "height_km": 487.00433545336654,
      "semi_major_axis_km": 6859.06302713114,
      "eccentricity": 0.00043702,
      "inclination_deg": 97.4027,
      "raan_deg": 181.8332,
      "arg_perigee_deg": 186.9962,
      "mean_anomaly_deg": 173.1218,
      "mean_motion_rev_day": 15.28289297
    },
    {
      "epoch": "2026-04-10T04:42:57.264768Z",
      "apogee_km": 483.9263932170643,
      "perigee_km": 477.82488993162497,
      "latitude_deg": 4.635623353922012e-06,
      "longitude_deg": -86.62330957055919,
      "height_km": 487.01920394920427,
      "semi_major_axis_km": 6859.012641574344,
      "eccentricity": 0.00044478,
      "inclination_deg": 97.4027,
      "raan_deg": 182.5491,
      "arg_perigee_deg": 184.6568,
      "mean_anomaly_deg": 175.4631,
      "mean_motion_rev_day": 15.28306137
    },
    {
      "epoch": "2026-04-11T18:25:43.232736Z",
      "apogee_km": 483.92735593472116,
      "perigee_km": 477.6569229154584,
      "latitude_deg": -2.3833919846501208e-05,
      "longitude_deg": 67.69814941271268,
      "height_km": 487.02968716612895,
      "semi_major_axis_km": 6858.9291394250895,
      "eccentricity": 0.0004571,
      "inclination_deg": 97.4028,
      "raan_deg": 184.1109,
      "arg_perigee_deg": 179.688,
      "mean_anomaly_deg": 180.4363,
      "mean_motion_rev_day": 15.28334046
    }
  ]
}